SatCatId,ObjectName,LaunchYear,OrbitalPeriod,LaunchMass,StatusCode,Inclination,Status,UcsData,OrbitClassEstimated,LaunchSiteCountry,Owner,UseType,Purpose,LaunchVehicleClass,TLE1,TLE2,MeanMotion,Eccentricity,OrbitClass
47478,FLOCK 4S-9,2021,93.92,4.0,+,97.37,Active,1,LEO,USA,USA,Commercial,Earth Observation,Falcon,1 47478U 21006BT  23276.42925122  .00022865  00000+0  71471-3 0  9991,2 47478  97.3731 334.1470 0006448  77.3275 282.8688 15.33145820149274,15.3314582,0.0006448,LEO
47482,NASA PTD-1,2021,93.33,-1.0,+,97.38,Active,0,LEO,USA,USA,Unknown,Unknown,Unknown,1 47482U 21006BX  23276.12123598  .00095115  00000+0  21471-2 0  9992,2 47482  97.3826 336.1163 0005390  79.9067 280.2788 15.42842574149292,15.42842574,0.000539,LEO
47483,P2-10,2021,93.14,1.0,+,97.37,Active,1,LEO,USA,USA,Civil/Government,Technology Development,Falcon,1 47483U 21006BY  23276.44942212  .00095610  00000+0  19398-2 0  9995,2 47483  97.3686 336.7054 0004614  63.8946 296.2777 15.46004820149448,15.4600482,0.0004614,LEO
47484,ARCE-1C,2021,92.9,1.0,+,97.36,Active,1,LEO,USA,USA,Civil,Technology Development,Falcon,1 47484U 21006BZ  23276.54151480  .00109342  00000+0  19227-2 0  9995,2 47484  97.3621 337.7668 0004699  58.6208 301.5503 15.50080446149525,15.50080446,0.0004699,LEO
47485,QPS-SAR-2 IZANAMI,2021,93.65,100.0,+,97.37,Active,1,LEO,USA,Japan,Commercial,Earth Observation,Falcon,1 47485U 21006CA  23276.61176150  .00058849  00000+0  15786-2 0  9996,2 47485  97.3746 335.0405 0006402  68.9679 291.2250 15.37741763149327,15.37741763,0.0006402,LEO
47486,CELESTIS 17 & SHERPA-FX1,2021,94.94,9.0,+,97.37,Active,1,LEO,USA,USA,Commercial,Communications,Falcon,1 47486U 21006CB  23276.61712744  .00006381  00000+0  32800-3 0  9993,2 47486  97.3721 327.3254 0010739  86.0584 274.1877 15.16759730148842,15.1675973,0.0010739,LEO
47487,ASTROCAST-0103,2021,94.7,4.0,+,97.39,Active,1,LEO,USA,Switzerland,Commercial,Communications,Falcon,1 47487U 21006CC  23276.60635854  .00012270  00000+0  56186-3 0  9996,2 47487  97.3899 329.9905 0010201  96.4837 263.7560 15.20591567148930,15.20591567,0.0010201,LEO
47488,ASTROCAST-0102,2021,94.7,4.0,+,97.38,Active,1,LEO,USA,Switzerland,Commercial,Communications,Falcon,1 47488U 21006CD  23276.11537592  .00011467  00000+0  52527-3 0  9995,2 47488  97.3831 328.8355 0010927  79.1671 281.0794 15.20588786148855,15.20588786,0.0010927,LEO
47490,FLOCK 4S-39,2021,93.91,4.0,+,97.38,Active,1,LEO,USA,USA,Commercial,Earth Observation,Falcon,1 47490U 21006CF  23276.12044650  .00027539  00000+0  85145-3 0  9996,2 47490  97.3821 335.2680 0007664  59.0923 301.1072 15.33449234149246,15.33449234,0.0007664,LEO
47491,FLOCK 4S-4,2021,93.91,4.0,+,97.37,Active,1,LEO,USA,USA,Commercial,Earth Observation,Falcon,1 47491U 21006CG  23276.43517413  .00019936  00000+0  61931-3 0  9992,2 47491  97.3682 334.0406 0007364  57.0530 303.1420 15.33366012149290,15.33366012,0.0007364,LEO
47492,FLOCK 4S-17,2021,93.91,4.0,+,97.38,Active,1,LEO,USA,USA,Commercial,Earth Observation,Falcon,1 47492U 21006CH  23276.13092704  .00028387  00000+0  88124-3 0  9994,2 47492  97.3842 335.3893 0008000  59.6369 300.5664 15.33310518149245,15.33310518,0.0008,LEO
47493,LEMUR-2-MANGO1,2021,93.72,10.0,+,97.38,Active,1,LEO,USA,USA,Commercial,Earth Observation,Falcon,1 47493U 21006CJ  23276.14078569  .00055854  00000+0  15599-2 0  9993,2 47493  97.3753 334.3684 0006565  69.6511 290.5437 15.36501458149253,15.36501458,0.0006565,LEO
47494,FLOCK 4S-3,2021,92.99,4.0,+,97.36,Active,1,LEO,USA,USA,Commercial,Earth Observation,Falcon,1 47494U 21006CK  23276.43351456  .00050837  00000+0  94902-3 0  9997,2 47494  97.3604 336.4869 0006453  65.5648 294.6275 15.48598838149457,15.48598838,0.0006453,LEO
47495,FLOCK 4S-27,2021,94.06,4.0,+,97.37,Active,1,LEO,USA,USA,Commercial,Earth Observation,Falcon,1 47495U 21006CL  23276.39551212  .00022618  00000+0  75513-3 0  9998,2 47495  97.3673 333.1169 0009067  77.1571 283.0682 15.31012632149223,15.31012632,0.0009067,LEO
47496,FLOCK 4S-18,2021,93.91,4.0,+,97.38,Active,1,LEO,USA,USA,Commercial,Earth Observation,Falcon,1 47496U 21006CM  23276.43239625  .00020236  00000+0  62915-3 0  9991,2 47496  97.3811 335.5166 0009133  62.6546 297.5625 15.33321425149295,15.33321425,0.0009133,LEO
47500,FLOCK 4S-19,2021,93.91,4.0,+,97.38,Active,1,LEO,USA,USA,Commercial,Earth Observation,Falcon,1 47500U 21006CR  23276.42370786  .00023398  00000+0  72556-3 0  9994,2 47500  97.3801 335.4928 0008463  59.7986 300.4094 15.33381855149292,15.33381855,0.0008463,LEO
47501,KEPLER-10 (BABY YODA),2021,93.66,9.0,+,97.38,Active,1,LEO,USA,Canada,Commercial,Communications,Falcon,1 47501U 21006CS  23276.43639719  .00053729  00000+0  14544-2 0  9993,2 47501  97.3807 335.8963 0006823  61.2439 298.9490 15.37482155149314,15.37482155,0.0006823,LEO
47502,HAWK-2C,2021,94.75,15.0,+,97.37,Active,1,LEO,USA,USA,Commercial,Surveillance,Falcon,1 47502U 21006CT  23276.45353750  .00016624  00000+0  77607-3 0  9997,2 47502  97.3730 327.8724 0010401  88.1062 272.1364 15.19852776148866,15.19852776,0.0010401,LEO
47503,KEPLER-11 (DANEEL),2021,94.46,9.0,+,97.38,Active,1,LEO,USA,Canada,Commercial,Communications,Falcon,1 47503U 21006CU  23276.43363415  .00019516  00000+0  79506-3 0  9998,2 47503  97.3750 330.5133 0008722  84.4403 275.7829 15.24479656149016,15.24479656,0.0008722,LEO
47504,ION SCV-002,2021,94.8,-1.0,+,97.15,Active,0,LEO,USA,Italy,Unknown,Unknown,Falcon,1 47504U 21006CV  23276.57967175  .00007185  00000+0  34489-3 0  9997,2 47504  97.1497 302.5909 0019802  53.6786 306.6274 15.18969949148970,15.18969949,0.0019802,LEO
47505,HAWK-2A,2021,94.75,15.0,+,97.37,Active,1,LEO,USA,USA,Commercial,Surveillance,Falcon,1 47505U 21006CW  23276.38789264  .00016667  00000+0  77812-3 0  9990,2 47505  97.3731 327.9179 0010323  87.7173 272.5244 15.19850016148851,15.19850016,0.0010323,LEO
47506,ICEYE-X9,2021,94.54,80.0,+,97.38,Active,1,LEO,USA,Finland,Commercial,Earth Observation,Falcon,1 47506U 21006CX  23276.55222460  .00026077  00000+0  11030-2 0  9995,2 47506  97.3779 329.6411 0008800  84.3585 275.8656 15.23150365148947,15.23150365,0.00088,LEO
47507,XR-1 (ICEYE-X10),2021,94.58,80.0,+,97.38,Active,1,LEO,USA,USA,Commercial,Earth Observation,Falcon,1 47507U 21006CY  23276.13854697  .00014986  00000+0  64637-3 0  9991,2 47507  97.3812 331.6622 0014260  57.5051 302.7562 15.22547214149028,15.22547214,0.001426,LEO
47508,HAWK-2B,2021,94.75,15.0,+,97.37,Active,1,LEO,USA,USA,Commercial,Surveillance,Falcon,1 47508U 21006CZ  23276.19056335  .00016828  00000+0  78561-3 0  9999,2 47508  97.3730 327.6143 0010649  89.3971 270.8484 15.19847175148822,15.19847175,0.0010649,LEO
47509,GHGSAT-C2,2021,94.76,15.0,+,97.36,Active,1,LEO,USA,Canada,Commercial,Earth Observation,Falcon,1 47509U 21006DA  23276.09570771  .00012454  00000+0  58677-3 0  9991,2 47509  97.3648 326.8319 0009304  86.5954 273.6345 15.19609225148822,15.19609225,0.0009304,LEO
47510,ICEYE-X8,2021,94.52,80.0,+,97.38,Active,1,LEO,USA,Finland,Commercial,Earth Observation,Falcon,1 47510U 21006DB  23276.56341259  .00018601  00000+0  78057-3 0  9996,2 47510  97.3764 329.8391 0008388  81.1021 279.1165 15.23491242148984,15.23491242,0.0008388,LEO
47511,LEMUR-2-RUAIRI-EILIDH,2021,93.47,10.0,+,97.37,Active,1,LEO,USA,USA,Commercial,Earth Observation,Falcon,1 47511U 21006DC  23276.40660247  .00070669  00000+0  17281-2 0  9994,2 47511  97.3736 335.1210 0004148  74.3026 285.8677 15.40539413149337,15.40539413,0.0004148,LEO
47514,FLOCK 4S-28,2021,93.92,4.0,+,97.37,Active,1,LEO,USA,USA,Commercial,Earth Observation,Falcon,1 47514U 21006DE  23276.12636946  .00026429  00000+0  82245-3 0  9993,2 47514  97.3698 333.5986 0006858  68.8493 291.3482 15.33255872150193,15.33255872,0.0006858,LEO
47515,FLOCK 4S-5,2021,93.89,4.0,+,97.37,Active,1,LEO,USA,USA,Commercial,Earth Observation,Falcon,1 47515U 21006DF  23276.61573891  .00023116  00000+0  70844-3 0  9999,2 47515  97.3686 334.0602 0007745  61.7773 298.4251 15.33763147149314,15.33763147,0.0007745,LEO
47516,FLOCK 4S-16,2021,92.94,4.0,+,97.38,Active,1,LEO,USA,USA,Commercial,Earth Observation,Falcon,1 47516U 21006DG  23276.11911424  .00048608  00000+0  88095-3 0  9993,2 47516  97.3790 339.2610 0008328  52.4742 307.7265 15.49442073150475,15.49442073,0.0008328,LEO
47517,ASTROCAST-0105,2021,94.8,4.0,+,97.37,Active,1,LEO,USA,Switzerland,Commercial,Communications,Falcon,1 47517U 21006DH  23276.58759334  .00010500  00000+0  50449-3 0  9997,2 47517  97.3699 327.2350 0008757  93.3385 266.8852 15.18978321148868,15.18978321,0.0008757,LEO
47518,FLOCK 4S-6,2021,93.89,4.0,+,97.37,Active,1,LEO,USA,USA,Commercial,Earth Observation,Falcon,1 47518U 21006DJ  23276.43196445  .00023520  00000+0  72316-3 0  9993,2 47518  97.3714 334.0613 0007350  73.1256 287.0792 15.33659364150250,15.33659364,0.000735,LEO
47519,ASTROCAST-0104,2021,94.7,4.0,+,97.39,Active,1,LEO,USA,Switzerland,Commercial,Communications,Falcon,1 47519U 21006DK  23276.59077457  .00011758  00000+0  53823-3 0  9994,2 47519  97.3860 329.5001 0009832  74.2849 285.9471 15.20617648148927,15.20617648,0.0009832,LEO
47521,FLOCK 4S-15,2021,92.99,4.0,+,97.38,Active,1,LEO,USA,USA,Commercial,Earth Observation,Falcon,1 47521U 21006DM  23276.54528269  .00052762  00000+0  98413-3 0  9998,2 47521  97.3750 338.0501 0006333  80.9015 279.2952 15.48615058150443,15.48615058,0.0006333,LEO
47522,FLOCK 4S-37,2021,93.91,4.0,+,97.38,Active,1,LEO,USA,USA,Commercial,Earth Observation,Falcon,1 47522U 21006DN  23276.39013526  .00019535  00000+0  60596-3 0  9999,2 47522  97.3798 335.1473 0006149  71.8374 288.3538 15.33424958150244,15.33424958,0.0006149,LEO
47523,FLOCK 4S-10,2021,93.89,4.0,+,97.37,Active,1,LEO,USA,USA,Commercial,Earth Observation,Falcon,1 47523U 21006DP  23276.43408965  .00023691  00000+0  72838-3 0  9990,2 47523  97.3744 334.2830 0006414  73.0890 287.1055 15.33665718149278,15.33665718,0.0006414,LEO
